[{"OBJECT_NAME":"SHIYAN-27 C","OBJECT_ID":"2025-078C","EPOCH":"2026-03-10T00:15:30.147840","MEAN_MOTION":13.57242447,"ECCENTRICITY":7.327e-5,"INCLINATION":99.6952,"RA_OF_ASC_NODE":77.7773,"ARG_OF_PERICENTER":94.8771,"MEAN_ANOMALY":265.2451,"EPHEMERIS_TYPE":0,"CLASSIFICATION_TYPE":"U","NORAD_CAT_ID":63601,"ELEMENT_SET_NO":999,"REV_AT_EPOCH":4408,"BSTAR":0.00011282459,"MEAN_MOTION_DOT":3.6e-7,"MEAN_MOTION_DDOT":0},{"OBJECT_NAME":"THOR ABLESTAR DEB","OBJECT_ID":"1961-015MY","EPOCH":"2026-03-08T17:27:20.035872","MEAN_MOTION":13.69364843,"ECCENTRICITY":0.01377659,"INCLINATION":65.849,"RA_OF_ASC_NODE":187.9912,"ARG_OF_PERICENTER":213.4014,"MEAN_ANOMALY":145.8301,"EPHEMERIS_TYPE":0,"CLASSIFICATION_TYPE":"U","NORAD_CAT_ID":48820,"ELEMENT_SET_NO":999,"REV_AT_EPOCH":61480,"BSTAR":0.0010390485,"MEAN_MOTION_DOT":8.87e-6,"MEAN_MOTION_DDOT":0}]
